FLOCK 4G-2              
1 62661U 25009BE  26068.66207492  .00013752  00000+0  51068-3 0  9995
2 62661  97.4044 151.2221 0003181 329.2677  30.8376 15.27675260121321
STARLINK-33958          
1 63850U 25093Q   26068.39605712  .00030737  00000+0  11217-2 0  9999
2 63850  43.0022  79.8737 0001471 260.8576  99.2109 15.27582198 47765
