[{"OBJECT_NAME":"FLOCK 4G-2","OBJECT_ID":"2025-009BE","EPOCH":"2026-03-09T15:53:23.273952","MEAN_MOTION":15.2767526,"ECCENTRICITY":0.00031811,"INCLINATION":97.4044,"RA_OF_ASC_NODE":151.2221,"ARG_OF_PERICENTER":329.2677,"MEAN_ANOMALY":30.8376,"EPHEMERIS_TYPE":0,"CLASSIFICATION_TYPE":"U","NORAD_CAT_ID":62661,"ELEMENT_SET_NO":999,"REV_AT_EPOCH":12132,"BSTAR":0.00051068481,"MEAN_MOTION_DOT":0.00013752,"MEAN_MOTION_DDOT":0},{"OBJECT_NAME":"STARLINK-33958","OBJECT_ID":"2025-093Q","EPOCH":"2026-03-09T09:30:19.335168","MEAN_MOTION":15.27582198,"ECCENTRICITY":0.00014715,"INCLINATION":43.0022,"RA_OF_ASC_NODE":79.8737,"ARG_OF_PERICENTER":260.8576,"MEAN_ANOMALY":99.2109,"EPHEMERIS_TYPE":0,"CLASSIFICATION_TYPE":"U","NORAD_CAT_ID":63850,"ELEMENT_SET_NO":999,"REV_AT_EPOCH":4776,"BSTAR":0.0011217485,"MEAN_MOTION_DOT":0.00030737,"MEAN_MOTION_DDOT":0}]
